NORAD_CAT_ID,OBJECT_NAME,OBJECT_TYPE,EPOCH,MEAN_MOTION,ECCENTRICITY,INCLINATION,RA_OF_ASC_NODE,ARG_OF_PERICENTER,MEAN_ANOMALY,BSTAR,MEAN_MOTION_DOT,MEAN_MOTION_DDOT,TLE_LINE0,TLE_LINE1,TLE_LINE2,SEMIMAJOR_AXIS,PERIOD,APOGEE,PERIGEE,DECAYED
53256.0,STARLINK-4147,PAYLOAD,2023-10-04 12:59:57,15.08839512,0.0002182,53.215,216.6824,76.2967,283.8268,0.00033871,5.106e-05,0.0,0 STARLINK-4147,1 53256U 22086Q   23277.54163452  .00005106  00000-0  33871-3 0  9997,2 53256  53.2150 216.6824 0002182  76.2967 283.8268 15.08839512 67134,6917.882,95.438,541.256,538.237,0.0
53256.0,STARLINK-4147,PAYLOAD,2023-10-05 04:53:47,15.08854193,0.0001388,53.2151,213.71,104.334,255.7806,0.0009124,0.00014268,0.0,0 STARLINK-4147,1 53256U 22086Q   23278.20402514  .00014268  00000-0  91240-3 0  9999,2 53256  53.2151 213.7100 0001388 104.3340 255.7806 15.08854193 67054,6917.837,95.437,540.662,538.742,0.0
53256.0,STARLINK-4147,PAYLOAD,2023-10-05 12:50:43,15.08841651,0.0001289,53.2151,212.2235,100.1179,259.9959,0.00056186,8.666e-05,0.0,0 STARLINK-4147,1 53256U 22086Q   23278.53522931  .00008666  00000-0  56186-3 0  9996,2 53256  53.2151 212.2235 0001289 100.1179 259.9959 15.08841651 67286,6917.875,95.437,540.632,538.849,0.0
53256.0,STARLINK-4147,PAYLOAD,2023-10-06 12:41:31,15.08833081,0.0002331,53.2155,207.7645,80.2288,279.8967,6.1731e-05,6.94e-06,0.0,0 STARLINK-4147,1 53256U 22086Q   23279.52883469  .00000694  00000-0  61731-4 0  9998,2 53256  53.2155 207.7645 0002331  80.2288 279.8967 15.08833081 67437,6917.902,95.438,541.379,538.154,0.0
53256.0,STARLINK-4147,PAYLOAD,2023-10-07 04:35:22,15.08842543,0.0001544,53.2142,204.7889,89.202,270.9149,0.0017169,0.00027144,0.0,0 STARLINK-4147,1 53256U 22086Q   23280.19123598  .00027144  00000-0  17169-2 0  9996,2 53256  53.2142 204.7889 0001544  89.2020 270.9149 15.08842543 67356,6917.873,95.437,540.806,538.669,0.0
53256.0,STARLINK-4147,PAYLOAD,2023-10-07 12:32:18,15.08849917,0.0001472,53.2136,203.3037,85.1541,274.9619,0.0014071,0.00022183,0.0,0 STARLINK-4147,1 53256U 22086Q   23280.52243646  .00022183  00000-0  14071-2 0  9997,2 53256  53.2136 203.3037 0001472  85.1541 274.9619 15.08849917 67585,6917.85,95.437,540.733,538.697,0.0
53256.0,STARLINK-4147,PAYLOAD,2023-10-08 01:15:23,15.08858945,0.0001755,53.2151,200.9223,104.5679,255.5508,0.0014417,0.00022743,0.0,0 STARLINK-4147,1 53256U 22086Q   23281.05235424  .00022743  00000-0  14417-2 0  9997,2 53256  53.2151 200.9223 0001755 104.5679 255.5508 15.08858945 67486,6917.822,95.436,540.902,538.473,0.0
53256.0,STARLINK-4147,PAYLOAD,2023-10-08 12:23:05,15.08848648,0.0002291,53.216,198.8416,89.5432,270.5823,0.0009761,0.00015285,0.0,0 STARLINK-4147,1 53256U 22086Q   23281.51603659  .00015285  00000-0  97610-3 0  9997,2 53256  53.2160 198.8416 0002291  89.5432 270.5823 15.08848648 67734,6917.854,95.437,541.304,538.134,0.0
53256.0,STARLINK-4147,PAYLOAD,2023-10-08 18:44:37,15.08863197,0.0002067,53.2151,197.6516,95.3808,264.742,0.001627,0.00025717,0.0,0 STARLINK-4147,1 53256U 22086Q   23281.78099259  .00025717  00000-0  16270-2 0  9994,2 53256  53.2151 197.6516 0002067  95.3808 264.7420 15.08863197 67593,6917.809,95.436,541.104,538.245,0.0
53256.0,STARLINK-4147,PAYLOAD,2023-10-09 01:06:10,15.08859439,0.000155,53.2161,196.464,92.63,267.487,0.0013742,0.00021662,0.0,0 STARLINK-4147,1 53256U 22086Q   23282.04594978  .00021662  00000-0  13742-2 0  9998,2 53256  53.2161 196.4640 0001550  92.6300 267.4870 15.08859439 67630,6917.821,95.436,540.758,538.614,0.0
53256.0,STARLINK-4147,PAYLOAD,2023-10-09 04:16:56,15.08866755,0.0001603,53.2163,195.8687,91.9224,268.1952,0.0014359,0.00022655,0.0,0 STARLINK-4147,1 53256U 22086Q   23282.17842721  .00022655  00000-0  14359-2 0  9992,2 53256  53.2163 195.8687 0001603  91.9224 268.1952 15.08866755 67832,6917.799,95.436,540.773,538.555,0.0
53256.0,STARLINK-4147,PAYLOAD,2023-10-09 18:35:25,15.08841902,0.0002105,53.2162,193.19,89.9235,270.1998,0.00094585,0.00014798,0.0,0 STARLINK-4147,1 53256U 22086Q   23282.77459538  .00014798  00000-0  94585-3 0  9997,2 53256  53.2162 193.1900 0002105  89.9235 270.1998 15.08841902 67747,6917.875,95.437,541.196,538.283,0.0
53256.0,STARLINK-4147,PAYLOAD,2023-10-09 21:46:11,15.08838676,0.0001634,53.2162,192.5951,107.1023,253.0148,0.0010074,0.00015781,0.0,0 STARLINK-4147,1 53256U 22086Q   23282.90707468  .00015781  00000-0  10074-2 0  9993,2 53256  53.2162 192.5951 0001634 107.1023 253.0148 15.08838676 67943,6917.884,95.438,540.88,538.619,0.0
53256.0,STARLINK-4147,PAYLOAD,2023-10-10 10:29:16,15.08836085,0.0001731,53.2171,190.2154,56.5968,303.5189,0.00077716,0.00012101,0.0,0 STARLINK-4147,1 53256U 22086Q   23283.43699895  .00012101  00000-0  77716-3 0  9996,2 53256  53.2171 190.2154 0001731  56.5968 303.5189 15.08836085 67843,6917.892,95.438,540.955,538.56,0.0
53256.0,STARLINK-4147,PAYLOAD,2023-10-10 21:36:58,15.08837714,0.0001481,53.2162,188.1344,74.2622,285.8534,0.00036373,5.505e-05,0.0,0 STARLINK-4147,1 53256U 22086Q   23283.90067938  .00005505  00000-0  36373-3 0  9999,2 53256  53.2162 188.1344 0001481  74.2622 285.8534 15.08837714 68090,6917.887,95.438,540.777,538.728,0.0
53256.0,STARLINK-4147,PAYLOAD,2023-10-11 10:20:03,15.08837597,0.0001763,53.2163,185.7572,84.6424,275.4769,0.00016856,2.395e-05,0.0,0 STARLINK-4147,1 53256U 22086Q   23284.43060014  .00002395  00000-0  16856-3 0  9994,2 53256  53.2163 185.7572 0001763  84.6424 275.4769 15.08837597 67997,6917.888,95.438,540.972,538.533,0.0
53256.0,STARLINK-4147,PAYLOAD,2023-10-12 02:13:55,15.0883785,0.0001837,53.2167,182.7873,96.211,263.9091,0.00017154,2.443e-05,0.0,0 STARLINK-4147,1 53256U 22086Q   23285.09300494  .00002443  00000-0  17154-3 0  9992,2 53256  53.2167 182.7873 0001837  96.2110 263.9091 15.08837850 68279,6917.887,95.438,541.023,538.481,0.0
53256.0,STARLINK-4147,PAYLOAD,2023-10-12 18:07:46,15.08844216,0.0001709,53.2167,179.8127,98.1081,262.0105,0.00047338,7.255e-05,0.0,0 STARLINK-4147,1 53256U 22086Q   23285.75540479  .00007255  00000-0  47338-3 0  9997,2 53256  53.2167 179.8127 0001709  98.1081 262.0105 15.08844216 68195,6917.868,95.437,540.915,538.55,0.0
53256.0,STARLINK-4147,PAYLOAD,2023-10-12 22:53:56,15.08852829,0.0001686,53.216,178.9206,96.6219,263.4966,0.00076757,0.00011953,0.0,0 STARLINK-4147,1 53256U 22086Q   23285.95412332  .00011953  00000-0  76757-3 0  9992,2 53256  53.2160 178.9206 0001686  96.6219 263.4966 15.08852829 68409,6917.841,95.437,540.873,538.54,0.0
53256.0,STARLINK-4147,PAYLOAD,2023-10-13 02:04:42,15.08863338,0.0001642,53.2158,178.3257,97.0599,263.058,0.001075,0.00016873,0.0,0 STARLINK-4147,1 53256U 22086Q   23286.08660071  .00016873  00000-0  10750-2 0  9998,2 53256  53.2158 178.3257 0001642  97.0599 263.0580 15.08863338 68241,6917.809,95.436,540.81,538.538,0.0
53256.0,STARLINK-4147,PAYLOAD,2023-10-13 10:01:38,15.08854601,0.0002164,53.2155,176.8368,82.6901,277.4337,0.00060575,9.369e-05,0.0,0 STARLINK-4147,1 53256U 22086Q   23286.41780246  .00009369  00000-0  60575-3 0  9995,2 53256  53.2155 176.8368 0002164  82.6901 277.4337 15.08854601 68298,6917.836,95.437,541.198,538.204,0.0
53256.0,STARLINK-4147,PAYLOAD,2023-10-13 21:09:19,15.08854215,0.0001373,53.2158,174.7575,84.9329,275.182,0.00057652,8.903e-05,0.0,0 STARLINK-4147,1 53256U 22086Q   23286.88147852  .00008903  00000-0  57652-3 0  9991,2 53256  53.2158 174.7575 0001373  84.9329 275.1820 15.08854215 68549,6917.837,95.437,540.652,538.752,0.0
53256.0,STARLINK-4147,PAYLOAD,2023-10-14 09:52:25,15.08845957,0.0001767,53.2152,172.3782,86.0386,274.0808,0.0006278,9.719e-05,0.0,0 STARLINK-4147,1 53256U 22086Q   23287.41140078  .00009719  00000-0  62780-3 0  9998,2 53256  53.2152 172.3782 0001767  86.0386 274.0808 15.08845957 68446,6917.862,95.437,540.95,538.505,0.0
53256.0,STARLINK-4147,PAYLOAD,2023-10-14 21:00:07,15.08827034,0.000113,53.2153,170.2963,102.7203,257.3915,0.00089832,0.00014033,0.0,0 STARLINK-4147,1 53256U 22086Q   23287.87508406  .00014033  00000-0  89832-3 0  9993,2 53256  53.2153 170.2963 0001130 102.7203 257.3915 15.08827034 68510,6917.92,95.438,540.567,539.003,0.0
53256.0,STARLINK-4147,PAYLOAD,2023-10-15 09:43:12,15.0883287,0.0001927,53.2145,167.9148,97.4501,262.6711,0.00090585,0.00014155,0.0,0 STARLINK-4147,1 53256U 22086Q   23288.40501022  .00014155  00000-0  90585-3 0  9992,2 53256  53.2145 167.9148 0001927  97.4501 262.6711 15.08832870 68779,6917.902,95.438,541.1,538.434,0.0
53256.0,STARLINK-4147,PAYLOAD,2023-10-15 20:50:54,15.08841645,0.0001511,53.2144,165.8325,102.637,257.4791,0.00095183,0.00014894,0.0,0 STARLINK-4147,1 53256U 22086Q   23288.86868975  .00014894  00000-0  95183-3 0  9994,2 53256  53.2144 165.8325 0001511 102.6370 257.4791 15.08841645 68662,6917.875,95.437,540.786,538.695,0.0
53256.0,STARLINK-4147,PAYLOAD,2023-10-15 22:26:17,15.08842476,0.0001361,53.2148,165.5359,95.3558,264.759,0.00063278,9.798e-05,0.0,0 STARLINK-4147,1 53256U 22086Q   23288.93492907  .00009798  00000-0  63278-3 0  9997,2 53256  53.2148 165.5359 0001361  95.3558 264.7590 15.08842476 68851,6917.873,95.437,540.679,538.796,0.0
53256.0,STARLINK-4147,PAYLOAD,2023-10-16 01:37:04,15.08845112,0.0001371,53.2149,164.941,95.635,264.4798,0.00065143,0.00010096,0.0,0 STARLINK-4147,1 53256U 22086Q   23289.06740859  .00010096  00000-0  65143-3 0  9990,2 53256  53.2149 164.9410 0001371  95.6350 264.4798 15.08845112 68876,6917.865,95.437,540.678,538.781,0.0
53256.0,STARLINK-4147,PAYLOAD,2023-10-16 19:06:18,15.088494,0.0001378,53.2148,161.6695,95.1974,264.9175,0.00044965,6.877e-05,0.0,0 STARLINK-4147,1 53256U 22086Q   23289.79604679  .00006877  00000-0  44965-3 0  9990,2 53256  53.2148 161.6695 0001378  95.1974 264.9175 15.08849400 68988,6917.852,95.437,540.67,538.763,0.0
53256.0,STARLINK-4147,PAYLOAD,2023-10-18 01:18:37,15.08844467,0.0001476,53.2146,156.0203,85.7111,274.4049,2.4735e-05,1.06e-06,0.0,0 STARLINK-4147,1 53256U 22086Q   23291.05460291  .00000106  00000-0  24735-4 0  9995,2 53256  53.2146 156.0203 0001476  85.7111 274.4049 15.08844467 68991,6917.867,95.437,540.753,538.711,0.0
